[{"OBJECT_NAME":"STARLINK-4575","OBJECT_ID":"2022-101AQ","EPOCH":"2025-09-06T22:39:29.287008","MEAN_MOTION":15.08822012,"ECCENTRICITY":0.00012374,"INCLINATION":53.2162,"RA_OF_ASC_NODE":159.1416,"ARG_OF_PERICENTER":69.5186,"MEAN_ANOMALY":290.5939,"EPHEMERIS_TYPE":0,"CLASSIFICATION_TYPE":"U","NORAD_CAT_ID":53565,"ELEMENT_SET_NO":999,"REV_AT_EPOCH":16936,"BSTAR":0.00025019031,"MEAN_MOTION_DOT":3.694e-5,"MEAN_MOTION_DDOT":0},{"OBJECT_NAME":"STARLINK-4576","OBJECT_ID":"2022-101AR","EPOCH":"2025-09-06T22:16:53.138784","MEAN_MOTION":15.08848636,"ECCENTRICITY":0.00022167,"INCLINATION":53.2171,"RA_OF_ASC_NODE":159.0473,"ARG_OF_PERICENTER":88.0004,"MEAN_ANOMALY":272.1242,"EPHEMERIS_TYPE":0,"CLASSIFICATION_TYPE":"U","NORAD_CAT_ID":53566,"ELEMENT_SET_NO":999,"REV_AT_EPOCH":16939,"BSTAR":0.00024579611,"MEAN_MOTION_DOT":3.627e-5,"MEAN_MOTION_DDOT":0},{"OBJECT_NAME":"STARLINK-4585","OBJECT_ID":"2022-101AS","EPOCH":"2025-09-06T22:32:48.091200","MEAN_MOTION":15.08854881,"ECCENTRICITY":0.00016313,"INCLINATION":53.2158,"RA_OF_ASC_NODE":159.1123,"ARG_OF_PERICENTER":92.302,"MEAN_ANOMALY":267.8159,"EPHEMERIS_TYPE":0,"CLASSIFICATION_TYPE":"U","NORAD_CAT_ID":53567,"ELEMENT_SET_NO":999,"REV_AT_EPOCH":16870,"BSTAR":0.00019181996,"MEAN_MOTION_DOT":2.767e-5,"MEAN_MOTION_DDOT":0},{"OBJECT_NAME":"STARLINK-4583","OBJECT_ID":"2022-101AT","EPOCH":"2025-09-06T22:00:57.773376","MEAN_MOTION":15.08859436,"ECCENTRICITY":0.0001221,"INCLINATION":53.2168,"RA_OF_ASC_NODE":158.9747,"ARG_OF_PERICENTER":77.4351,"MEAN_ANOMALY":282.6778,"EPHEMERIS_TYPE":0,"CLASSIFICATION_TYPE":"U","NORAD_CAT_ID":53568,"ELEMENT_SET_NO":999,"REV_AT_EPOCH":16939,"BSTAR":0.00094251291,"MEAN_MOTION_DOT":0.00014752,"MEAN_MOTION_DDOT":0},{"OBJECT_NAME":"STARLINK-4582","OBJECT_ID":"2022-101AU","EPOCH":"2025-09-06T22:22:11.066592","MEAN_MOTION":15.08839547,"ECCENTRICITY":0.00014013,"INCLINATION":53.2183,"RA_OF_ASC_NODE":159.0696,"ARG_OF_PERICENTER":86.6781,"MEAN_ANOMALY":273.4371,"EPHEMERIS_TYPE":0,"CLASSIFICATION_TYPE":"U","NORAD_CAT_ID":53569,"ELEMENT_SET_NO":999,"REV_AT_EPOCH":16937,"BSTAR":0.0001333321,"MEAN_MOTION_DOT":1.835e-5,"MEAN_MOTION_DDOT":0},{"OBJECT_NAME":"STARLINK-4550","OBJECT_ID":"2022-101AV","EPOCH":"2025-09-06T22:06:15.613920","MEAN_MOTION":15.08845602,"ECCENTRICITY":0.0001303,"INCLINATION":53.2167,"RA_OF_ASC_NODE":158.9987,"ARG_OF_PERICENTER":81.8677,"MEAN_ANOMALY":278.2463,"EPHEMERIS_TYPE":0,"CLASSIFICATION_TYPE":"U","NORAD_CAT_ID":53570,"ELEMENT_SET_NO":999,"REV_AT_EPOCH":16939,"BSTAR":9.757942e-6,"MEAN_MOTION_DOT":-1.33e-6,"MEAN_MOTION_DDOT":0},{"OBJECT_NAME":"STARLINK-4584","OBJECT_ID":"2022-101AW","EPOCH":"2025-09-06T22:11:34.206144","MEAN_MOTION":15.0884395,"ECCENTRICITY":0.00013957,"INCLINATION":53.2174,"RA_OF_ASC_NODE":159.023,"ARG_OF_PERICENTER":98.3516,"MEAN_ANOMALY":261.7635,"EPHEMERIS_TYPE":0,"CLASSIFICATION_TYPE":"U","NORAD_CAT_ID":53571,"ELEMENT_SET_NO":999,"REV_AT_EPOCH":16939,"BSTAR":0.00012686308,"MEAN_MOTION_DOT":1.732e-5,"MEAN_MOTION_DDOT":0},{"OBJECT_NAME":"STARLINK-4555","OBJECT_ID":"2022-101AX","EPOCH":"2025-09-06T21:34:26.000256","MEAN_MOTION":15.08866014,"ECCENTRICITY":0.00014269,"INCLINATION":53.2169,"RA_OF_ASC_NODE":158.8663,"ARG_OF_PERICENTER":85.9591,"MEAN_ANOMALY":274.1564,"EPHEMERIS_TYPE":0,"CLASSIFICATION_TYPE":"U","NORAD_CAT_ID":53572,"ELEMENT_SET_NO":999,"REV_AT_EPOCH":16870,"BSTAR":0.00071659771,"MEAN_MOTION_DOT":0.00011143,"MEAN_MOTION_DDOT":0},{"OBJECT_NAME":"STARLINK-4547","OBJECT_ID":"2022-101AY","EPOCH":"2025-09-06T21:55:39.064512","MEAN_MOTION":15.08842175,"ECCENTRICITY":0.00010569,"INCLINATION":53.217,"RA_OF_ASC_NODE":158.954,"ARG_OF_PERICENTER":91.926,"MEAN_ANOMALY":268.1853,"EPHEMERIS_TYPE":0,"CLASSIFICATION_TYPE":"U","NORAD_CAT_ID":53573,"ELEMENT_SET_NO":999,"REV_AT_EPOCH":16870,"BSTAR":7.6764297e-5,"MEAN_MOTION_DOT":9.34e-6,"MEAN_MOTION_DDOT":0},{"OBJECT_NAME":"STARLINK-4559","OBJECT_ID":"2022-101AZ","EPOCH":"2025-09-06T21:39:44.001504","MEAN_MOTION":15.08851224,"ECCENTRICITY":0.00015893,"INCLINATION":53.2177,"RA_OF_ASC_NODE":158.8863,"ARG_OF_PERICENTER":88.4828,"MEAN_ANOMALY":271.6346,"EPHEMERIS_TYPE":0,"CLASSIFICATION_TYPE":"U","NORAD_CAT_ID":53574,"ELEMENT_SET_NO":999,"REV_AT_EPOCH":16870,"BSTAR":-4.69367e-5,"MEAN_MOTION_DOT":-1.035e-5,"MEAN_MOTION_DDOT":0},{"OBJECT_NAME":"STARLINK-4551","OBJECT_ID":"2022-101BA","EPOCH":"2025-09-06T21:50:21.239520","MEAN_MOTION":15.08833652,"ECCENTRICITY":0.00017236,"INCLINATION":53.2173,"RA_OF_ASC_NODE":158.9307,"ARG_OF_PERICENTER":94.7644,"MEAN_ANOMALY":265.3545,"EPHEMERIS_TYPE":0,"CLASSIFICATION_TYPE":"U","NORAD_CAT_ID":53575,"ELEMENT_SET_NO":999,"REV_AT_EPOCH":16939,"BSTAR":7.7929262e-5,"MEAN_MOTION_DOT":9.52e-6,"MEAN_MOTION_DDOT":0},{"OBJECT_NAME":"STARLINK-4581","OBJECT_ID":"2022-101BB","EPOCH":"2025-09-06T21:51:42.209280","MEAN_MOTION":15.08869835,"ECCENTRICITY":0.00012085,"INCLINATION":53.217,"RA_OF_ASC_NODE":158.9361,"ARG_OF_PERICENTER":99.1553,"MEAN_ANOMALY":260.9575,"EPHEMERIS_TYPE":0,"CLASSIFICATION_TYPE":"U","NORAD_CAT_ID":53576,"ELEMENT_SET_NO":999,"REV_AT_EPOCH":16952,"BSTAR":0.00050934057,"MEAN_MOTION_DOT":7.834e-5,"MEAN_MOTION_DDOT":0},{"OBJECT_NAME":"STARLINK-4553","OBJECT_ID":"2022-101BC","EPOCH":"2025-09-06T21:45:02.545344","MEAN_MOTION":15.08841826,"ECCENTRICITY":0.00015604,"INCLINATION":53.2174,"RA_OF_ASC_NODE":158.9073,"ARG_OF_PERICENTER":104.6364,"MEAN_ANOMALY":255.4801,"EPHEMERIS_TYPE":0,"CLASSIFICATION_TYPE":"U","NORAD_CAT_ID":53577,"ELEMENT_SET_NO":999,"REV_AT_EPOCH":16952,"BSTAR":8.9434445e-5,"MEAN_MOTION_DOT":1.136e-5,"MEAN_MOTION_DDOT":0},{"OBJECT_NAME":"STARLINK-4556","OBJECT_ID":"2022-101BD","EPOCH":"2025-09-06T21:29:07.369152","MEAN_MOTION":15.08841184,"ECCENTRICITY":0.00015212,"INCLINATION":53.2152,"RA_OF_ASC_NODE":158.8384,"ARG_OF_PERICENTER":87.737,"MEAN_ANOMALY":272.3797,"EPHEMERIS_TYPE":0,"CLASSIFICATION_TYPE":"U","NORAD_CAT_ID":53578,"ELEMENT_SET_NO":999,"REV_AT_EPOCH":16870,"BSTAR":4.0014479e-5,"MEAN_MOTION_DOT":3.49e-6,"MEAN_MOTION_DDOT":0},{"OBJECT_NAME":"STARLINK-4580","OBJECT_ID":"2022-101BE","EPOCH":"2025-09-06T21:23:48.868512","MEAN_MOTION":15.08844414,"ECCENTRICITY":0.00015642,"INCLINATION":53.2175,"RA_OF_ASC_NODE":158.8163,"ARG_OF_PERICENTER":76.9928,"MEAN_ANOMALY":283.1239,"EPHEMERIS_TYPE":0,"CLASSIFICATION_TYPE":"U","NORAD_CAT_ID":53579,"ELEMENT_SET_NO":999,"REV_AT_EPOCH":16870,"BSTAR":5.396763e-5,"MEAN_MOTION_DOT":5.71e-6,"MEAN_MOTION_DDOT":0},{"OBJECT_NAME":"STARLINK-4691","OBJECT_ID":"2022-104A","EPOCH":"2025-09-06T13:23:01.999392","MEAN_MOTION":15.08838186,"ECCENTRICITY":0.00014286,"INCLINATION":53.2194,"RA_OF_ASC_NODE":350.9727,"ARG_OF_PERICENTER":91.1102,"MEAN_ANOMALY":269.0054,"EPHEMERIS_TYPE":0,"CLASSIFICATION_TYPE":"U","NORAD_CAT_ID":53588,"ELEMENT_SET_NO":999,"REV_AT_EPOCH":16829,"BSTAR":2.992419e-6,"MEAN_MOTION_DOT":-2.4e-6,"MEAN_MOTION_DDOT":0},{"OBJECT_NAME":"STARLINK-4673","OBJECT_ID":"2022-104B","EPOCH":"2025-09-06T14:31:52.165632","MEAN_MOTION":15.08863538,"ECCENTRICITY":0.000134,"INCLINATION":53.2189,"RA_OF_ASC_NODE":350.5614,"ARG_OF_PERICENTER":87.0324,"MEAN_ANOMALY":273.0822,"EPHEMERIS_TYPE":0,"CLASSIFICATION_TYPE":"U","NORAD_CAT_ID":53589,"ELEMENT_SET_NO":999,"REV_AT_EPOCH":16815,"BSTAR":0.00012634655,"MEAN_MOTION_DOT":1.725e-5,"MEAN_MOTION_DDOT":0},{"OBJECT_NAME":"STARLINK-4689","OBJECT_ID":"2022-104C","EPOCH":"2025-09-06T13:17:43.554912","MEAN_MOTION":15.08847889,"ECCENTRICITY":0.00013709,"INCLINATION":53.2178,"RA_OF_ASC_NODE":350.9484,"ARG_OF_PERICENTER":94.0101,"MEAN_ANOMALY":266.1048,"EPHEMERIS_TYPE":0,"CLASSIFICATION_TYPE":"U","NORAD_CAT_ID":53590,"ELEMENT_SET_NO":999,"REV_AT_EPOCH":16816,"BSTAR":4.171382e-6,"MEAN_MOTION_DOT":-2.22e-6,"MEAN_MOTION_DDOT":0},{"OBJECT_NAME":"STARLINK-4674","OBJECT_ID":"2022-104D","EPOCH":"2025-09-06T13:12:21.651840","MEAN_MOTION":15.08878926,"ECCENTRICITY":0.00011616,"INCLINATION":53.2187,"RA_OF_ASC_NODE":350.9265,"ARG_OF_PERICENTER":89.4073,"MEAN_ANOMALY":270.7052,"EPHEMERIS_TYPE":0,"CLASSIFICATION_TYPE":"U","NORAD_CAT_ID":53591,"ELEMENT_SET_NO":999,"REV_AT_EPOCH":16816,"BSTAR":0.00039277332,"MEAN_MOTION_DOT":5.975e-5,"MEAN_MOTION_DDOT":0},{"OBJECT_NAME":"STARLINK-4672","OBJECT_ID":"2022-104E","EPOCH":"2025-09-06T13:08:29.941728","MEAN_MOTION":15.08838337,"ECCENTRICITY":0.00012407,"INCLINATION":53.2183,"RA_OF_ASC_NODE":350.9109,"ARG_OF_PERICENTER":86.9772,"MEAN_ANOMALY":273.1362,"EPHEMERIS_TYPE":0,"CLASSIFICATION_TYPE":"U","NORAD_CAT_ID":53592,"ELEMENT_SET_NO":999,"REV_AT_EPOCH":16814,"BSTAR":0.000135862,"MEAN_MOTION_DOT":1.875e-5,"MEAN_MOTION_DDOT":0},{"OBJECT_NAME":"STARLINK-4681","OBJECT_ID":"2022-104G","EPOCH":"2025-09-06T14:21:16.780032","MEAN_MOTION":15.08833675,"ECCENTRICITY":0.00012893,"INCLINATION":53.219,"RA_OF_ASC_NODE":350.5153,"ARG_OF_PERICENTER":104.6033,"MEAN_ANOMALY":255.5102,"EPHEMERIS_TYPE":0,"CLASSIFICATION_TYPE":"U","NORAD_CAT_ID":53594,"ELEMENT_SET_NO":999,"REV_AT_EPOCH":16829,"BSTAR":7.7681924e-5,"MEAN_MOTION_DOT":9.48e-6,"MEAN_MOTION_DDOT":0},{"OBJECT_NAME":"STARLINK-4684","OBJECT_ID":"2022-104H","EPOCH":"2025-09-06T14:26:34.674144","MEAN_MOTION":15.08839862,"ECCENTRICITY":0.00011882,"INCLINATION":53.2188,"RA_OF_ASC_NODE":350.5379,"ARG_OF_PERICENTER":86.0358,"MEAN_ANOMALY":274.077,"EPHEMERIS_TYPE":0,"CLASSIFICATION_TYPE":"U","NORAD_CAT_ID":53595,"ELEMENT_SET_NO":999,"REV_AT_EPOCH":16815,"BSTAR":0.00015618171,"MEAN_MOTION_DOT":2.199e-5,"MEAN_MOTION_DDOT":0},{"OBJECT_NAME":"STARLINK-4676","OBJECT_ID":"2022-104L","EPOCH":"2025-09-06T13:49:26.005152","MEAN_MOTION":15.08838885,"ECCENTRICITY":0.00012336,"INCLINATION":53.2188,"RA_OF_ASC_NODE":350.3775,"ARG_OF_PERICENTER":87.1446,"MEAN_ANOMALY":272.9688,"EPHEMERIS_TYPE":0,"CLASSIFICATION_TYPE":"U","NORAD_CAT_ID":53598,"ELEMENT_SET_NO":999,"REV_AT_EPOCH":16782,"BSTAR":0.00014594978,"MEAN_MOTION_DOT":2.036e-5,"MEAN_MOTION_DDOT":0}]
